HELIOS 1B               
1 25977U 99064A   26114.71618828  .00001030  00000+0  11904-3 0  9994
2 25977  98.1652  18.3042 0000380  72.0418 288.0839 14.87856360692108
TERRA                   
1 25994U 99068A   26114.81148299  .00000302  00000+0  70507-4 0  9994
2 25994  97.9505 166.4623 0003256  59.1394  31.3538 14.61058983401813
SL-16 R/B               
1 26070U 00006B   26114.86511655  .00000245  00000+0  14842-3 0  9994
2 26070  71.0044   0.7459 0014622 114.6452 245.6196 14.15829960355096
TITAN 4B R/B            
1 26474U 00047B   26114.80596047  .00002182  00000+0  13998-3 0  9992
2 26474  67.9882 270.7928 0042395 342.8213  17.1498 15.09905108399870
ENVISAT                 
1 27386U 02009A   26114.84288453  .00000067  00000+0  35425-4 0  9998
2 27386  98.3796  67.3634 0001143  86.6558 297.6474 14.39051378265818
IDEFIX & ARIANE 42P R/B 
1 27422U 02021B   26114.78233992  .00000175  00000+0  82996-4 0  9999
2 27422  98.5919  52.8531 0012846  54.8833 305.3552 14.31054680250615
AQUA                    
1 27424U 02022A   26114.87891027  .00000703  00000+0  14983-3 0  9998
2 27424  98.4242  83.1123 0002012  97.1843 315.3227 14.62071446275489
CZ-4B R/B               
1 27432U 02024C   26114.77561138  .00000021  00000+0  33814-4 0  9993
2 27432  98.8747 167.9293 0049130 251.6699 216.7720 14.14555391235750
MIDORI II (ADEOS-II)    
1 27597U 02056A   26114.86626356  .00000240  00000+0  11197-3 0  9996
2 27597  98.7839  73.6864 0000756 145.1155 215.0076 14.29317693216892
H-2A R/B                
1 27601U 02056E   26114.83583189  .00000281  00000+0  11295-3 0  9999
2 27601  98.3275  73.4677 0070808  25.0834  35.3605 14.33792264220727
CZ-4B R/B               
1 28059U 03049C   26114.86996255  .00000325  00000+0  85781-4 0  9996
2 28059  98.6899 111.5985 0049347  90.7889 269.8961 14.55058847193318
CZ-2C R/B               
1 28222U 04012C   26114.70350819  .00058987  00000+0  48417-3 0  9993
2 28222  97.7132 184.5392 0013823 139.8590 220.3695 15.70164869211481
SL-16 R/B               
1 28353U 04021B   26114.49082267 -.00000209  00000+0 -84146-4 0  9999
2 28353  70.9987 136.3786 0006820 310.9361  49.1170 14.14604676129313
CZ-4B R/B               
1 28415U 04035C   26114.64110013  .00006208  00000+0  21445-3 0  9996
2 28415  97.3425 148.3387 0032281 162.4213 197.8153 15.29794428186933
CZ-2C R/B               
1 28480U 04046B   26114.76302563  .00000127  00000+0  62327-4 0  9995
2 28480  98.1968  26.8749 0139891  19.1306 341.5056 14.27009761115077
ARIANE 5 R/B            
1 28499U 04049H   26114.44208294  .00000831  00000+0  97893-4 0  9997
2 28499  98.2688 284.6321 0083588 201.9895 157.7725 14.85350228152580
CZ-2D R/B               
1 28738U 05024B   26114.50599172  .00036053  00000+0  37899-3 0  9996
2 28738  97.3549 131.4714 0004563 173.3798 186.7523 15.64237102146930
