[{"OBJECT_NAME":"HELIOS 1B","OBJECT_ID":"1999-064A","EPOCH":"2026-04-24T17:11:18.667392","MEAN_MOTION":14.8785636,"ECCENTRICITY":3.8e-5,"INCLINATION":98.1652,"RA_OF_ASC_NODE":18.3042,"ARG_OF_PERICENTER":72.0418,"MEAN_ANOMALY":288.0839,"EPHEMERIS_TYPE":0,"CLASSIFICATION_TYPE":"U","NORAD_CAT_ID":25977,"ELEMENT_SET_NO":999,"REV_AT_EPOCH":69210,"BSTAR":0.00011904,"MEAN_MOTION_DOT":1.03e-5,"MEAN_MOTION_DDOT":0},{"OBJECT_NAME":"TERRA","OBJECT_ID":"1999-068A","EPOCH":"2026-04-24T19:28:32.130336","MEAN_MOTION":14.61058983,"ECCENTRICITY":0.0003256,"INCLINATION":97.9505,"RA_OF_ASC_NODE":166.4623,"ARG_OF_PERICENTER":59.1394,"MEAN_ANOMALY":31.3538,"EPHEMERIS_TYPE":0,"CLASSIFICATION_TYPE":"U","NORAD_CAT_ID":25994,"ELEMENT_SET_NO":999,"REV_AT_EPOCH":40181,"BSTAR":7.0507e-5,"MEAN_MOTION_DOT":3.02e-6,"MEAN_MOTION_DDOT":0},{"OBJECT_NAME":"SL-16 R/B","OBJECT_ID":"2000-006B","EPOCH":"2026-04-24T20:45:46.069920","MEAN_MOTION":14.1582996,"ECCENTRICITY":0.0014622,"INCLINATION":71.0044,"RA_OF_ASC_NODE":0.7459,"ARG_OF_PERICENTER":114.6452,"MEAN_ANOMALY":245.6196,"EPHEMERIS_TYPE":0,"CLASSIFICATION_TYPE":"U","NORAD_CAT_ID":26070,"ELEMENT_SET_NO":999,"REV_AT_EPOCH":35509,"BSTAR":0.00014842,"MEAN_MOTION_DOT":2.45e-6,"MEAN_MOTION_DDOT":0},{"OBJECT_NAME":"TITAN 4B R/B","OBJECT_ID":"2000-047B","EPOCH":"2026-04-24T19:20:34.984608","MEAN_MOTION":15.09905108,"ECCENTRICITY":0.0042395,"INCLINATION":67.9882,"RA_OF_ASC_NODE":270.7928,"ARG_OF_PERICENTER":342.8213,"MEAN_ANOMALY":17.1498,"EPHEMERIS_TYPE":0,"CLASSIFICATION_TYPE":"U","NORAD_CAT_ID":26474,"ELEMENT_SET_NO":999,"REV_AT_EPOCH":39987,"BSTAR":0.00013998,"MEAN_MOTION_DOT":2.182e-5,"MEAN_MOTION_DDOT":0},{"OBJECT_NAME":"ENVISAT","OBJECT_ID":"2002-009A","EPOCH":"2026-04-24T20:13:45.223392","MEAN_MOTION":14.39051378,"ECCENTRICITY":0.0001143,"INCLINATION":98.3796,"RA_OF_ASC_NODE":67.3634,"ARG_OF_PERICENTER":86.6558,"MEAN_ANOMALY":297.6474,"EPHEMERIS_TYPE":0,"CLASSIFICATION_TYPE":"U","NORAD_CAT_ID":27386,"ELEMENT_SET_NO":999,"REV_AT_EPOCH":26581,"BSTAR":3.5425e-5,"MEAN_MOTION_DOT":6.7e-7,"MEAN_MOTION_DDOT":0},{"OBJECT_NAME":"IDEFIX & ARIANE 42P R/B","OBJECT_ID":"2002-021B","EPOCH":"2026-04-24T18:46:34.169088","MEAN_MOTION":14.3105468,"ECCENTRICITY":0.0012846,"INCLINATION":98.5919,"RA_OF_ASC_NODE":52.8531,"ARG_OF_PERICENTER":54.8833,"MEAN_ANOMALY":305.3552,"EPHEMERIS_TYPE":0,"CLASSIFICATION_TYPE":"U","NORAD_CAT_ID":27422,"ELEMENT_SET_NO":999,"REV_AT_EPOCH":25061,"BSTAR":8.2996e-5,"MEAN_MOTION_DOT":1.75e-6,"MEAN_MOTION_DDOT":0},{"OBJECT_NAME":"AQUA","OBJECT_ID":"2002-022A","EPOCH":"2026-04-24T21:05:37.847328","MEAN_MOTION":14.62071446,"ECCENTRICITY":0.0002012,"INCLINATION":98.4242,"RA_OF_ASC_NODE":83.1123,"ARG_OF_PERICENTER":97.1843,"MEAN_ANOMALY":315.3227,"EPHEMERIS_TYPE":0,"CLASSIFICATION_TYPE":"U","NORAD_CAT_ID":27424,"ELEMENT_SET_NO":999,"REV_AT_EPOCH":27548,"BSTAR":0.00014983,"MEAN_MOTION_DOT":7.03e-6,"MEAN_MOTION_DDOT":0},{"OBJECT_NAME":"CZ-4B R/B","OBJECT_ID":"2002-024C","EPOCH":"2026-04-24T18:36:52.823232","MEAN_MOTION":14.14555391,"ECCENTRICITY":0.004913,"INCLINATION":98.8747,"RA_OF_ASC_NODE":167.9293,"ARG_OF_PERICENTER":251.6699,"MEAN_ANOMALY":216.772,"EPHEMERIS_TYPE":0,"CLASSIFICATION_TYPE":"U","NORAD_CAT_ID":27432,"ELEMENT_SET_NO":999,"REV_AT_EPOCH":23575,"BSTAR":3.3814e-5,"MEAN_MOTION_DOT":2.1e-7,"MEAN_MOTION_DDOT":0},{"OBJECT_NAME":"MIDORI II (ADEOS-II)","OBJECT_ID":"2002-056A","EPOCH":"2026-04-24T20:47:25.171584","MEAN_MOTION":14.29317693,"ECCENTRICITY":7.56e-5,"INCLINATION":98.7839,"RA_OF_ASC_NODE":73.6864,"ARG_OF_PERICENTER":145.1155,"MEAN_ANOMALY":215.0076,"EPHEMERIS_TYPE":0,"CLASSIFICATION_TYPE":"U","NORAD_CAT_ID":27597,"ELEMENT_SET_NO":999,"REV_AT_EPOCH":21689,"BSTAR":0.00011197,"MEAN_MOTION_DOT":2.4e-6,"MEAN_MOTION_DDOT":0},{"OBJECT_NAME":"H-2A R/B","OBJECT_ID":"2002-056E","EPOCH":"2026-04-24T20:03:35.875296","MEAN_MOTION":14.33792264,"ECCENTRICITY":0.0070808,"INCLINATION":98.3275,"RA_OF_ASC_NODE":73.4677,"ARG_OF_PERICENTER":25.0834,"MEAN_ANOMALY":35.3605,"EPHEMERIS_TYPE":0,"CLASSIFICATION_TYPE":"U","NORAD_CAT_ID":27601,"ELEMENT_SET_NO":999,"REV_AT_EPOCH":22072,"BSTAR":0.00011295,"MEAN_MOTION_DOT":2.81e-6,"MEAN_MOTION_DDOT":0},{"OBJECT_NAME":"CZ-4B R/B","OBJECT_ID":"2003-049C","EPOCH":"2026-04-24T20:52:44.764320","MEAN_MOTION":14.55058847,"ECCENTRICITY":0.0049347,"INCLINATION":98.6899,"RA_OF_ASC_NODE":111.5985,"ARG_OF_PERICENTER":90.7889,"MEAN_ANOMALY":269.8961,"EPHEMERIS_TYPE":0,"CLASSIFICATION_TYPE":"U","NORAD_CAT_ID":28059,"ELEMENT_SET_NO":999,"REV_AT_EPOCH":19331,"BSTAR":8.5781e-5,"MEAN_MOTION_DOT":3.25e-6,"MEAN_MOTION_DDOT":0},{"OBJECT_NAME":"CZ-2C R/B","OBJECT_ID":"2004-012C","EPOCH":"2026-04-24T16:53:03.107616","MEAN_MOTION":15.70164869,"ECCENTRICITY":0.0013823,"INCLINATION":97.7132,"RA_OF_ASC_NODE":184.5392,"ARG_OF_PERICENTER":139.859,"MEAN_ANOMALY":220.3695,"EPHEMERIS_TYPE":0,"CLASSIFICATION_TYPE":"U","NORAD_CAT_ID":28222,"ELEMENT_SET_NO":999,"REV_AT_EPOCH":21148,"BSTAR":0.00048417,"MEAN_MOTION_DOT":0.00058987,"MEAN_MOTION_DDOT":0},{"OBJECT_NAME":"SL-16 R/B","OBJECT_ID":"2004-021B","EPOCH":"2026-04-24T11:46:47.078688","MEAN_MOTION":14.14604676,"ECCENTRICITY":0.000682,"INCLINATION":70.9987,"RA_OF_ASC_NODE":136.3786,"ARG_OF_PERICENTER":310.9361,"MEAN_ANOMALY":49.117,"EPHEMERIS_TYPE":0,"CLASSIFICATION_TYPE":"U","NORAD_CAT_ID":28353,"ELEMENT_SET_NO":999,"REV_AT_EPOCH":12931,"BSTAR":-8.4146e-5,"MEAN_MOTION_DOT":-2.09e-6,"MEAN_MOTION_DDOT":0},{"OBJECT_NAME":"CZ-4B R/B","OBJECT_ID":"2004-035C","EPOCH":"2026-04-24T15:23:11.051232","MEAN_MOTION":15.29794428,"ECCENTRICITY":0.0032281,"INCLINATION":97.3425,"RA_OF_ASC_NODE":148.3387,"ARG_OF_PERICENTER":162.4213,"MEAN_ANOMALY":197.8153,"EPHEMERIS_TYPE":0,"CLASSIFICATION_TYPE":"U","NORAD_CAT_ID":28415,"ELEMENT_SET_NO":999,"REV_AT_EPOCH":18693,"BSTAR":0.00021445,"MEAN_MOTION_DOT":6.208e-5,"MEAN_MOTION_DDOT":0},{"OBJECT_NAME":"CZ-2C R/B","OBJECT_ID":"2004-046B","EPOCH":"2026-04-24T18:18:45.414432","MEAN_MOTION":14.27009761,"ECCENTRICITY":0.0139891,"INCLINATION":98.1968,"RA_OF_ASC_NODE":26.8749,"ARG_OF_PERICENTER":19.1306,"MEAN_ANOMALY":341.5056,"EPHEMERIS_TYPE":0,"CLASSIFICATION_TYPE":"U","NORAD_CAT_ID":28480,"ELEMENT_SET_NO":999,"REV_AT_EPOCH":11507,"BSTAR":6.2327e-5,"MEAN_MOTION_DOT":1.27e-6,"MEAN_MOTION_DDOT":0},{"OBJECT_NAME":"ARIANE 5 R/B","OBJECT_ID":"2004-049H","EPOCH":"2026-04-24T10:36:35.966016","MEAN_MOTION":14.85350228,"ECCENTRICITY":0.0083588,"INCLINATION":98.2688,"RA_OF_ASC_NODE":284.6321,"ARG_OF_PERICENTER":201.9895,"MEAN_ANOMALY":157.7725,"EPHEMERIS_TYPE":0,"CLASSIFICATION_TYPE":"U","NORAD_CAT_ID":28499,"ELEMENT_SET_NO":999,"REV_AT_EPOCH":15258,"BSTAR":9.7893e-5,"MEAN_MOTION_DOT":8.31e-6,"MEAN_MOTION_DDOT":0},{"OBJECT_NAME":"CZ-2D R/B","OBJECT_ID":"2005-024B","EPOCH":"2026-04-24T12:08:37.684608","MEAN_MOTION":15.64237102,"ECCENTRICITY":0.0004563,"INCLINATION":97.3549,"RA_OF_ASC_NODE":131.4714,"ARG_OF_PERICENTER":173.3798,"MEAN_ANOMALY":186.7523,"EPHEMERIS_TYPE":0,"CLASSIFICATION_TYPE":"U","NORAD_CAT_ID":28738,"ELEMENT_SET_NO":999,"REV_AT_EPOCH":14693,"BSTAR":0.00037899,"MEAN_MOTION_DOT":0.00036053,"MEAN_MOTION_DDOT":0}]
